{
  "norad_id": 38087,
  "name": "SES-4",
  "history": [
    {
      "epoch": "2026-03-28T07:50:07.855584Z",
      "apogee_km": 35796.103428053626,
      "perigee_km": 35777.281048281715,
      "latitude_deg": 0.007898441340547957,
      "longitude_deg": -22.006686300650742,
      "height_km": 35786.54779447189,
      "semi_major_axis_km": 42164.82923816767,
      "eccentricity": 0.0002232,
      "inclination_deg": 0.0329,
      "raan_deg": 63.3796,
      "arg_perigee_deg": 310.2546,
      "mean_anomaly_deg": 267.6426,
      "mean_motion_rev_day": 1.00271438
    },
    {
      "epoch": "2026-03-29T04:22:14.623680Z",
      "apogee_km": 35796.11374003446,
      "perigee_km": 35777.34194220719,
      "latitude_deg": 0.019691421712502457,
      "longitude_deg": -21.993257876085146,
      "height_km": 35793.8976376548,
      "semi_major_axis_km": 42164.86484112083,
      "eccentricity": 0.0002226,
      "inclination_deg": 0.031,
      "raan_deg": 64.8567,
      "arg_perigee_deg": 310.0306,
      "mean_anomaly_deg": 215.2638,
      "mean_motion_rev_day": 1.00271311
    },
    {
      "epoch": "2026-03-29T07:47:39.922368Z",
      "apogee_km": 35796.18408953014,
      "perigee_km": 35777.66350822484,
      "latitude_deg": 0.010531977777357355,
      "longitude_deg": -22.004755684150854,
      "height_km": 35787.06913210219,
      "semi_major_axis_km": 42165.060798877494,
      "eccentricity": 0.00021962,
      "inclination_deg": 0.0313,
      "raan_deg": 64.9442,
      "arg_perigee_deg": 310.9031,
      "mean_anomaly_deg": 265.7988,
      "mean_motion_rev_day": 1.00270612
    },
    {
      "epoch": "2026-03-30T09:27:51.094368Z",
      "apogee_km": 35796.209289439874,
      "perigee_km": 35776.70141914123,
      "latitude_deg": 0.005951602047821606,
      "longitude_deg": -22.002867806976056,
      "height_km": 35782.53465535534,
      "semi_major_axis_km": 42164.59235429055,
      "eccentricity": 0.00023133,
      "inclination_deg": 0.0295,
      "raan_deg": 65.4438,
      "arg_perigee_deg": 312.0956,
      "mean_anomaly_deg": 290.2108,
      "mean_motion_rev_day": 1.00272283
    },
    {
      "epoch": "2026-04-01T16:13:40.999008Z",
      "apogee_km": 35797.103960620916,
      "perigee_km": 35776.65392788795,
      "latitude_deg": -0.013722563902564945,
      "longitude_deg": -21.976604668587164,
      "height_km": 35777.95981613269,
      "semi_major_axis_km": 42165.01594425444,
      "eccentricity": 0.0002425,
      "inclination_deg": 0.0339,
      "raan_deg": 64.7844,
      "arg_perigee_deg": 311.6895,
      "mean_anomaly_deg": 34.975,
      "mean_motion_rev_day": 1.00270772
    },
    {
      "epoch": "2026-04-02T19:36:36.339264Z",
      "apogee_km": 35796.33514080275,
      "perigee_km": 35776.64004465549,
      "latitude_deg": -0.01288227650861998,
      "longitude_deg": -21.96569442559,
      "height_km": 35784.857767998714,
      "semi_major_axis_km": 42164.624592729124,
      "eccentricity": 0.00023355,
      "inclination_deg": 0.0334,
      "raan_deg": 66.2299,
      "arg_perigee_deg": 313.6985,
      "mean_anomaly_deg": 83.3793,
      "mean_motion_rev_day": 1.00272168
    },
    {
      "epoch": "2026-04-03T19:34:08.429376Z",
      "apogee_km": 35796.8401077331,
      "perigee_km": 35776.60940706191,
      "latitude_deg": -0.009517725570635679,
      "longitude_deg": -21.96647422832284,
      "height_km": 35784.95511525563,
      "semi_major_axis_km": 42164.861757397506,
      "eccentricity": 0.0002399,
      "inclination_deg": 0.0302,
      "raan_deg": 65.4271,
      "arg_perigee_deg": 315.4686,
      "mean_anomaly_deg": 82.7808,
      "mean_motion_rev_day": 1.00271322
    },
    {
      "epoch": "2026-04-04T05:11:38.889312Z",
      "apogee_km": 35796.14571977066,
      "perigee_km": 35777.02401840303,
      "latitude_deg": 0.006925125046501081,
      "longitude_deg": -22.012382116746085,
      "height_km": 35792.63380007954,
      "semi_major_axis_km": 42164.721869086854,
      "eccentricity": 0.00022675,
      "inclination_deg": 0.0293,
      "raan_deg": 65.6049,
      "arg_perigee_deg": 315.9599,
      "mean_anomaly_deg": 226.8854,
      "mean_motion_rev_day": 1.00271821
    },
    {
      "epoch": "2026-04-05T05:47:40.691616Z",
      "apogee_km": 35796.35459570162,
      "perigee_km": 35777.591121814476,
      "latitude_deg": 0.0053655739564371216,
      "longitude_deg": -22.016324159223682,
      "height_km": 35792.045683336706,
      "semi_major_axis_km": 42165.10985875805,
      "eccentricity": 0.0002225,
      "inclination_deg": 0.0268,
      "raan_deg": 65.5775,
      "arg_perigee_deg": 319.2817,
      "mean_anomaly_deg": 233.6083,
      "mean_motion_rev_day": 1.00270437
    },
    {
      "epoch": "2026-04-05T19:29:12.384960Z",
      "apogee_km": 35796.29935106626,
      "perigee_km": 35776.861416352374,
      "latitude_deg": -0.008547590072515873,
      "longitude_deg": -21.968594316991044,
      "height_km": 35784.61094407753,
      "semi_major_axis_km": 42164.71738370932,
      "eccentricity": 0.0002305,
      "inclination_deg": 0.0286,
      "raan_deg": 64.235,
      "arg_perigee_deg": 318.8514,
      "mean_anomaly_deg": 81.3271,
      "mean_motion_rev_day": 1.00271837
    },
    {
      "epoch": "2026-04-06T05:06:38.706336Z",
      "apogee_km": 35796.400793751745,
      "perigee_km": 35777.69294497259,
      "latitude_deg": 0.0029470336658520015,
      "longitude_deg": -22.013834969816767,
      "height_km": 35793.401051785586,
      "semi_major_axis_km": 42165.18386936217,
      "eccentricity": 0.00022184,
      "inclination_deg": 0.0238,
      "raan_deg": 66.5543,
      "arg_perigee_deg": 319.6127,
      "mean_anomaly_deg": 223.0003,
      "mean_motion_rev_day": 1.00270173
    },
    {
      "epoch": "2026-04-07T19:24:14.997024Z",
      "apogee_km": 35797.433836626435,
      "perigee_km": 35776.663266223804,
      "latitude_deg": -0.010074149620838609,
      "longitude_deg": -21.976314097437044,
      "height_km": 35784.70032326801,
      "semi_major_axis_km": 42165.18555142512,
      "eccentricity": 0.0002463,
      "inclination_deg": 0.028,
      "raan_deg": 62.2116,
      "arg_perigee_deg": 323.1552,
      "mean_anomaly_deg": 79.7677,
      "mean_motion_rev_day": 1.00270167
    },
    {
      "epoch": "2026-04-08T03:57:35.466048Z",
      "apogee_km": 35797.33608988045,
      "perigee_km": 35776.698776694626,
      "latitude_deg": 0.009305519206243977,
      "longitude_deg": -22.019255056110005,
      "height_km": 35795.655546425834,
      "semi_major_axis_km": 42165.15443328754,
      "eccentricity": 0.00024472,
      "inclination_deg": 0.0301,
      "raan_deg": 61.1373,
      "arg_perigee_deg": 324.7476,
      "mean_anomaly_deg": 207.9346,
      "mean_motion_rev_day": 1.00270278
    },
    {
      "epoch": "2026-04-09T17:36:40.785696Z",
      "apogee_km": 35797.231763709344,
      "perigee_km": 35776.37698370591,
      "latitude_deg": -0.011082550082849913,
      "longitude_deg": -21.981027953860252,
      "height_km": 35780.05296759856,
      "semi_major_axis_km": 42164.941373707625,
      "eccentricity": 0.0002473,
      "inclination_deg": 0.0268,
      "raan_deg": 66.3604,
      "arg_perigee_deg": 320.4817,
      "mean_anomaly_deg": 53.2988,
      "mean_motion_rev_day": 1.00271038
    },
    {
      "epoch": "2026-04-09T22:06:38.650752Z",
      "apogee_km": 35796.6231585783,
      "perigee_km": 35776.3251147771,
      "latitude_deg": -0.0058954690932293925,
      "longitude_deg": -21.97844581086261,
      "height_km": 35790.96207114865,
      "semi_major_axis_km": 42164.611136677704,
      "eccentricity": 0.0002407,
      "inclination_deg": 0.0265,
      "raan_deg": 66.5812,
      "arg_perigee_deg": 321.9602,
      "mean_anomaly_deg": 119.2768,
      "mean_motion_rev_day": 1.00272216
    },
    {
      "epoch": "2026-04-11T08:58:10.251264Z",
      "apogee_km": 35796.511420081595,
      "perigee_km": 35776.77830217058,
      "latitude_deg": 0.0072420018594999335,
      "longitude_deg": -22.026968574177214,
      "height_km": 35784.40112323576,
      "semi_major_axis_km": 42164.78186112609,
      "eccentricity": 0.000234,
      "inclination_deg": 0.0243,
      "raan_deg": 68.2639,
      "arg_perigee_deg": 323.8985,
      "mean_anomaly_deg": 279.9725,
      "mean_motion_rev_day": 1.00271607
    },
    {
      "epoch": "2026-04-13T05:25:38.748288Z",
      "apogee_km": 35796.81875074586,
      "perigee_km": 35776.85279283896,
      "latitude_deg": 0.002190461325380754,
      "longitude_deg": -22.018592374760825,
      "height_km": 35793.48229648289,
      "semi_major_axis_km": 42164.97277179241,
      "eccentricity": 0.00023676,
      "inclination_deg": 0.02,
      "raan_deg": 68.8081,
      "arg_perigee_deg": 327.7696,
      "mean_anomaly_deg": 224.2558,
      "mean_motion_rev_day": 1.00270926
    }
  ]
}